CCSDS_OMM_VERS = 2.0
CREATION_DATE  = 
ORIGINATOR     = 

OBJECT_NAME    = UNKNOWN
OBJECT_ID      = 
CENTER_NAME    = EARTH
REF_FRAME      = TEME
TIME_SYSTEM    = UTC
MEAN_ELEMENT_THEORY = SGP/SGP4

EPOCH          = 2026-03-25T01:43:59.329344
MEAN_MOTION    = 13.35621391
ECCENTRICITY   = .0060159
INCLINATION    = 99.6937
RA_OF_ASC_NODE = 297.8264
ARG_OF_PERICENTER = 15.2200
MEAN_ANOMALY   = 137.0047

EPHEMERIS_TYPE = 0
CLASSIFICATION_TYPE = U
NORAD_CAT_ID   = 87541
ELEMENT_SET_NO = 999
REV_AT_EPOCH   = 59569
BSTAR          = .30029E-3
MEAN_MOTION_DOT = .113E-5
MEAN_MOTION_DDOT = 0

CCSDS_OMM_VERS = 2.0
CREATION_DATE  = 
ORIGINATOR     = 

OBJECT_NAME    = UNKNOWN
OBJECT_ID      = 
CENTER_NAME    = EARTH
REF_FRAME      = TEME
TIME_SYSTEM    = UTC
MEAN_ELEMENT_THEORY = SGP/SGP4

EPOCH          = 2026-03-24T11:22:04.870272
MEAN_MOTION    = 13.54221037
ECCENTRICITY   = .0689623
INCLINATION    = 65.6670
RA_OF_ASC_NODE = 109.5441
ARG_OF_PERICENTER = 182.3615
MEAN_ANOMALY   = 177.4130

EPHEMERIS_TYPE = 0
CLASSIFICATION_TYPE = U
NORAD_CAT_ID   = 87553
ELEMENT_SET_NO = 999
REV_AT_EPOCH   = 60502
BSTAR          = .50404E-3
MEAN_MOTION_DOT = .1544E-4
MEAN_MOTION_DDOT = 0

CCSDS_OMM_VERS = 2.0
CREATION_DATE  = 
ORIGINATOR     = 

OBJECT_NAME    = UNKNOWN
OBJECT_ID      = 
CENTER_NAME    = EARTH
REF_FRAME      = TEME
TIME_SYSTEM    = UTC
MEAN_ELEMENT_THEORY = SGP/SGP4

EPOCH          = 2026-03-24T21:24:45.945216
MEAN_MOTION    = 13.28693061
ECCENTRICITY   = .005371
INCLINATION    = 101.7799
RA_OF_ASC_NODE = 317.9439
ARG_OF_PERICENTER = 149.2248
MEAN_ANOMALY   = 211.2034

EPHEMERIS_TYPE = 0
CLASSIFICATION_TYPE = U
NORAD_CAT_ID   = 87557
ELEMENT_SET_NO = 999
REV_AT_EPOCH   = 57859
BSTAR          = .87853E-2
MEAN_MOTION_DOT = .4004E-4
MEAN_MOTION_DDOT = 0

CCSDS_OMM_VERS = 2.0
CREATION_DATE  = 
ORIGINATOR     = 

OBJECT_NAME    = UNKNOWN
OBJECT_ID      = 
CENTER_NAME    = EARTH
REF_FRAME      = TEME
TIME_SYSTEM    = UTC
MEAN_ELEMENT_THEORY = SGP/SGP4

EPOCH          = 2026-03-23T21:42:53.184672
MEAN_MOTION    = 12.32164839
ECCENTRICITY   = .0175417
INCLINATION    = 101.9928
RA_OF_ASC_NODE = 142.5837
ARG_OF_PERICENTER = 108.2844
MEAN_ANOMALY   = 71.0704

EPHEMERIS_TYPE = 0
CLASSIFICATION_TYPE = U
NORAD_CAT_ID   = 87561
ELEMENT_SET_NO = 999
REV_AT_EPOCH   = 55489
BSTAR          = -.36222E-3
MEAN_MOTION_DOT = -.89E-6
MEAN_MOTION_DDOT = 0

CCSDS_OMM_VERS = 2.0
CREATION_DATE  = 
ORIGINATOR     = 

OBJECT_NAME    = UNKNOWN
OBJECT_ID      = 
CENTER_NAME    = EARTH
REF_FRAME      = TEME
TIME_SYSTEM    = UTC
MEAN_ELEMENT_THEORY = SGP/SGP4

EPOCH          = 2026-03-25T11:36:03.281184
MEAN_MOTION    = 14.06310421
ECCENTRICITY   = .0170713
INCLINATION    = 99.9526
RA_OF_ASC_NODE = 91.1992
ARG_OF_PERICENTER = 252.5537
MEAN_ANOMALY   = 105.6903

EPHEMERIS_TYPE = 0
CLASSIFICATION_TYPE = U
NORAD_CAT_ID   = 87565
ELEMENT_SET_NO = 999
REV_AT_EPOCH   = 63087
BSTAR          = .47382E-3
MEAN_MOTION_DOT = .837E-5
MEAN_MOTION_DDOT = 0

CCSDS_OMM_VERS = 2.0
CREATION_DATE  = 
ORIGINATOR     = 

OBJECT_NAME    = UNKNOWN
OBJECT_ID      = 
CENTER_NAME    = EARTH
REF_FRAME      = TEME
TIME_SYSTEM    = UTC
MEAN_ELEMENT_THEORY = SGP/SGP4

EPOCH          = 2026-03-25T06:20:24.638784
MEAN_MOTION    = 12.68545038
ECCENTRICITY   = .0055711
INCLINATION    = 101.9963
RA_OF_ASC_NODE = 270.5829
ARG_OF_PERICENTER = 52.4917
MEAN_ANOMALY   = 133.6850

EPHEMERIS_TYPE = 0
CLASSIFICATION_TYPE = U
NORAD_CAT_ID   = 87569
ELEMENT_SET_NO = 999
REV_AT_EPOCH   = 57146
BSTAR          = .83072E-4
MEAN_MOTION_DOT = -.32E-6
MEAN_MOTION_DDOT = 0

CCSDS_OMM_VERS = 2.0
CREATION_DATE  = 
ORIGINATOR     = 

OBJECT_NAME    = UNKNOWN
OBJECT_ID      = 
CENTER_NAME    = EARTH
REF_FRAME      = TEME
TIME_SYSTEM    = UTC
MEAN_ELEMENT_THEORY = SGP/SGP4

EPOCH          = 2026-03-14T08:53:42.545184
MEAN_MOTION    = 14.10460805
ECCENTRICITY   = .0026814
INCLINATION    = 98.7749
RA_OF_ASC_NODE = 113.3642
ARG_OF_PERICENTER = 27.3449
MEAN_ANOMALY   = 349.2031

EPHEMERIS_TYPE = 0
CLASSIFICATION_TYPE = U
NORAD_CAT_ID   = 87590
ELEMENT_SET_NO = 999
REV_AT_EPOCH   = 16716
BSTAR          = .34184E-3
MEAN_MOTION_DOT = .567E-5
MEAN_MOTION_DDOT = 0

CCSDS_OMM_VERS = 2.0
CREATION_DATE  = 
ORIGINATOR     = 

OBJECT_NAME    = UNKNOWN
OBJECT_ID      = 
CENTER_NAME    = EARTH
REF_FRAME      = TEME
TIME_SYSTEM    = UTC
MEAN_ELEMENT_THEORY = SGP/SGP4

EPOCH          = 2026-03-23T09:49:43.092192
MEAN_MOTION    = 12.47031508
ECCENTRICITY   = .0628794
INCLINATION    = 66.0361
RA_OF_ASC_NODE = 310.6014
ARG_OF_PERICENTER = 95.4281
MEAN_ANOMALY   = 78.2061

EPHEMERIS_TYPE = 0
CLASSIFICATION_TYPE = U
NORAD_CAT_ID   = 87616
ELEMENT_SET_NO = 999
REV_AT_EPOCH   = 54878
BSTAR          = .42996E-2
MEAN_MOTION_DOT = .1226E-4
MEAN_MOTION_DDOT = 0

CCSDS_OMM_VERS = 2.0
CREATION_DATE  = 
ORIGINATOR     = 

OBJECT_NAME    = UNKNOWN
OBJECT_ID      = 
CENTER_NAME    = EARTH
REF_FRAME      = TEME
TIME_SYSTEM    = UTC
MEAN_ELEMENT_THEORY = SGP/SGP4

EPOCH          = 2026-03-25T07:32:37.203072
MEAN_MOTION    = 14.71486076
ECCENTRICITY   = .0094272
INCLINATION    = 98.6911
RA_OF_ASC_NODE = 33.4448
ARG_OF_PERICENTER = 287.9864
MEAN_ANOMALY   = 71.1083

EPHEMERIS_TYPE = 0
CLASSIFICATION_TYPE = U
NORAD_CAT_ID   = 87624
ELEMENT_SET_NO = 999
REV_AT_EPOCH   = 59535
BSTAR          = .7692E-3
MEAN_MOTION_DOT = .5054E-4
MEAN_MOTION_DDOT = 0

CCSDS_OMM_VERS = 2.0
CREATION_DATE  = 
ORIGINATOR     = 

OBJECT_NAME    = UNKNOWN
OBJECT_ID      = 
CENTER_NAME    = EARTH
REF_FRAME      = TEME
TIME_SYSTEM    = UTC
MEAN_ELEMENT_THEORY = SGP/SGP4

EPOCH          = 2026-03-24T07:05:27.483072
MEAN_MOTION    = 14.64427535
ECCENTRICITY   = .003053
INCLINATION    = 100.2706
RA_OF_ASC_NODE = 288.2225
ARG_OF_PERICENTER = 343.2715
MEAN_ANOMALY   = 16.7471

EPHEMERIS_TYPE = 0
CLASSIFICATION_TYPE = U
NORAD_CAT_ID   = 87650
ELEMENT_SET_NO = 999
REV_AT_EPOCH   = 9461
BSTAR          = .14725E-2
MEAN_MOTION_DOT = .7781E-4
MEAN_MOTION_DDOT = 0

CCSDS_OMM_VERS = 2.0
CREATION_DATE  = 
ORIGINATOR     = 

OBJECT_NAME    = UNKNOWN
OBJECT_ID      = 
CENTER_NAME    = EARTH
REF_FRAME      = TEME
TIME_SYSTEM    = UTC
MEAN_ELEMENT_THEORY = SGP/SGP4

EPOCH          = 2026-03-20T21:50:37.927680
MEAN_MOTION    = 14.28340779
ECCENTRICITY   = .0055217
INCLINATION    = 70.8576
RA_OF_ASC_NODE = 154.4906
ARG_OF_PERICENTER = 125.0426
MEAN_ANOMALY   = 235.5901

EPHEMERIS_TYPE = 0
CLASSIFICATION_TYPE = U
NORAD_CAT_ID   = 87672
ELEMENT_SET_NO = 999
REV_AT_EPOCH   = 63847
BSTAR          = .63902E-3
MEAN_MOTION_DOT = .1573E-4
MEAN_MOTION_DDOT = 0

CCSDS_OMM_VERS = 2.0
CREATION_DATE  = 
ORIGINATOR     = 

OBJECT_NAME    = UNKNOWN
OBJECT_ID      = 
CENTER_NAME    = EARTH
REF_FRAME      = TEME
TIME_SYSTEM    = UTC
MEAN_ELEMENT_THEORY = SGP/SGP4

EPOCH          = 2026-03-25T15:03:32.414400
MEAN_MOTION    = 13.71363444
ECCENTRICITY   = .0148801
INCLINATION    = 66.7374
RA_OF_ASC_NODE = 214.9262
ARG_OF_PERICENTER = 91.8261
MEAN_ANOMALY   = 269.9856

EPHEMERIS_TYPE = 0
CLASSIFICATION_TYPE = U
NORAD_CAT_ID   = 87681
ELEMENT_SET_NO = 999
REV_AT_EPOCH   = 61594
BSTAR          = .96226E-3
MEAN_MOTION_DOT = .863E-5
MEAN_MOTION_DDOT = 0

CCSDS_OMM_VERS = 2.0
CREATION_DATE  = 
ORIGINATOR     = 

OBJECT_NAME    = UNKNOWN
OBJECT_ID      = 
CENTER_NAME    = EARTH
REF_FRAME      = TEME
TIME_SYSTEM    = UTC
MEAN_ELEMENT_THEORY = SGP/SGP4

EPOCH          = 2026-03-25T06:41:09.610080
MEAN_MOTION    = 14.01694402
ECCENTRICITY   = .0582641
INCLINATION    = 65.7913
RA_OF_ASC_NODE = 87.1179
ARG_OF_PERICENTER = 354.9583
MEAN_ANOMALY   = 4.5774

EPHEMERIS_TYPE = 0
CLASSIFICATION_TYPE = U
NORAD_CAT_ID   = 87690
ELEMENT_SET_NO = 999
REV_AT_EPOCH   = 62174
BSTAR          = .1062E-2
MEAN_MOTION_DOT = .743E-4
MEAN_MOTION_DDOT = 0

CCSDS_OMM_VERS = 2.0
CREATION_DATE  = 
ORIGINATOR     = 

OBJECT_NAME    = UNKNOWN
OBJECT_ID      = 
CENTER_NAME    = EARTH
REF_FRAME      = TEME
TIME_SYSTEM    = UTC
MEAN_ELEMENT_THEORY = SGP/SGP4

EPOCH          = 2026-03-25T11:36:28.905696
MEAN_MOTION    = 14.65414740
ECCENTRICITY   = .0102565
INCLINATION    = 98.6764
RA_OF_ASC_NODE = 278.6732
ARG_OF_PERICENTER = 309.3175
MEAN_ANOMALY   = 79.4583

EPHEMERIS_TYPE = 0
CLASSIFICATION_TYPE = U
NORAD_CAT_ID   = 87706
ELEMENT_SET_NO = 999
REV_AT_EPOCH   = 59356
BSTAR          = .49813E-3
MEAN_MOTION_DOT = .2851E-4
MEAN_MOTION_DDOT = 0

CCSDS_OMM_VERS = 2.0
CREATION_DATE  = 
ORIGINATOR     = 

OBJECT_NAME    = UNKNOWN
OBJECT_ID      = 
CENTER_NAME    = EARTH
REF_FRAME      = TEME
TIME_SYSTEM    = UTC
MEAN_ELEMENT_THEORY = SGP/SGP4

EPOCH          = 2026-03-23T11:39:35.355168
MEAN_MOTION    = 15.12404420
ECCENTRICITY   = .0005326
INCLINATION    = 82.8717
RA_OF_ASC_NODE = 162.9597
ARG_OF_PERICENTER = 126.1291
MEAN_ANOMALY   = 234.0434

EPHEMERIS_TYPE = 0
CLASSIFICATION_TYPE = U
NORAD_CAT_ID   = 87725
ELEMENT_SET_NO = 999
REV_AT_EPOCH   = 64906
BSTAR          = .53608E-2
MEAN_MOTION_DOT = .94198E-3
MEAN_MOTION_DDOT = 0

CCSDS_OMM_VERS = 2.0
CREATION_DATE  = 
ORIGINATOR     = 

OBJECT_NAME    = UNKNOWN
OBJECT_ID      = 
CENTER_NAME    = EARTH
REF_FRAME      = TEME
TIME_SYSTEM    = UTC
MEAN_ELEMENT_THEORY = SGP/SGP4

EPOCH          = 2026-03-20T11:56:36.066624
MEAN_MOTION    = 13.74523561
ECCENTRICITY   = .0031398
INCLINATION    = 82.9484
RA_OF_ASC_NODE = 161.7897
ARG_OF_PERICENTER = 91.9887
MEAN_ANOMALY   = 268.4865

EPHEMERIS_TYPE = 0
CLASSIFICATION_TYPE = U
NORAD_CAT_ID   = 87730
ELEMENT_SET_NO = 999
REV_AT_EPOCH   = 59876
BSTAR          = .84462E-4
MEAN_MOTION_DOT = .96E-6
MEAN_MOTION_DDOT = 0

